              M50 Cartesian                         J2K Cartesian  
    -----------------------------------       --------------------------------
     X    =       13313912.24                 X    =         4042720.73
     Y    =       10640130.77  feet           Y    =         3288405.75  meter
     Z    =      -14323489.65                 Z    =        -4346124.11
     XDOT =      -5120.688911                 XDOT =       -1651.867000
     YDOT =      21786.435119  feet/sec       YDOT =        6622.542719  meter/sec
     ZDOT =      11442.247826                 ZDOT =        3479.793428
 
              TDR Cartesian                         TDR Cartesian  
    -----------------------------------       --------------------------------
     X    =       14967501.25                 X    =         4562094.38
     Y    =        8298957.80  feet           Y    =         2529522.34  meter
     Z    =      -14238546.40                 Z    =        -4339908.94
     XDOT =       -949.530602                 XDOT =        -289.416927
     YDOT =      21252.579132  feet/sec       YDOT =        6477.786120  meter/sec
     ZDOT =      11407.130666                 ZDOT =        3476.893427
  
  
    The mean element set is posted at the UTC for which position is
    just north of the next ascending node relative to the above
    vector time
 
 
    TWO LINE MEAN ELEMENT SET
  
    ISS
    1 25544U 98067A   16092.50977026  .00016717  00000-0  10270-3 0  9146
    2 25544  51.6395  80.4552 0002482  20.4776 339.6476 15.54427783 33052
  
  
    Satellite: ISS
    Catalog Number: 25544
    Epoch time:      16092.50977026   =   yrday.fracday
    Element set:     914
    Inclination:       51.6395  deg
    RA of node:        80.4552  deg
    Eccentricity:     .0002482     
    Arg of perigee:    20.4776  deg
    Mean anomaly:     339.6476  deg
    Mean motion:   15.54427783  rev/day
    Decay rate:    1.67170E-04  rev/day^2
    Epoch rev:            3305
    Checksum:              322
 
             </PRE>
           </TD>
        </TR>
    </TABLE>
    
    <table align="center" border="0" width="600" cellpadding="0" cellspacing="0">
      <tr>
        <td align="center" valign="top"><hr size="1" width="600" noshade="noshade" />
        <font face="Arial,helvetica" size="-2">Curator: <a href="/cgi-bin/comment.cgi?jsc-hsfwebma@mail.nasa.gov">Kim 
          Dismukes</a> | Responsible NASA Official: <a href="/cgi-bin/comment.cgi?jsc-hsfwebma@mail.nasa.gov">Amiko Kauderer</a> | Updated: 06/08/2009<br />
        <a href="http://www.nasa.gov/about/highlights/HP_Privacy.html">Privacy Policy and Important Notices</a></font></td>
      </tr>
    </table>
    </body>
    </html>
